{"type": "FeatureCollection", "features": [ {"type": "Feature", "properties": {"norad_id": 31615, "name": "FENGYUN 1C DEB", "group": "fengyun-1c-debris", "lat": -37.639924678286384, "lon": 55.617859655343665, "alt_km": 680.0625312568491, "timestamp": "2025-12-22T11:33:20.722889+00:00", "meta": {"OBJECT_NAME": "FENGYUN 1C DEB", "OBJECT_ID": "1999-025BZV", "EPOCH": "2025-12-21T08:57:52.591968", "MEAN_MOTION": 14.35488145, "ECCENTRICITY": 0.01666483, "INCLINATION": 99.1375, "RA_OF_ASC_NODE": 47.3142, "ARG_OF_PERICENTER": 291.3444, "MEAN_ANOMALY": 67.0025, "EPHEMERIS_TYPE": 0, "CLASSIFICATION_TYPE": "U", "NORAD_CAT_ID": 31615, "ELEMENT_SET_NO": 999, "REV_AT_EPOCH": 65402, "BSTAR": 0.0021985548, "MEAN_MOTION_DOT": 7.354e-05, "MEAN_MOTION_DDOT": 0}, "tle": {"line1": "1 31615U 99025BZV 25355.37352537  .00007354  00000+0  21986-2 0  9992", "line2": "2 31615  99.1375  47.3142 0166648 291.3444  67.0025 14.35488145654021"}}, "geometry": {"type": "Point", "coordinates": [55.617859655343665, -37.639924678286384]}}, {"type": "Feature", "properties": {"norad_id": 31618, "name": "FENGYUN 1C DEB", "group": "fengyun-1c-debris", "lat": -58.65621758525017, "lon": -55.77469070706682, "alt_km": 768.7245996550373, "timestamp": "2025-12-22T11:33:20.722898+00:00", "meta": {"OBJECT_NAME": "FENGYUN 1C DEB", "OBJECT_ID": "1999-025BZY", "EPOCH": "2025-12-19T16:30:44.127072", "MEAN_MOTION": 14.21030172, "ECCENTRICITY": 0.01569395, "INCLINATION": 99.4436, "RA_OF_ASC_NODE": 137.0992, "ARG_OF_PERICENTER": 306.372, "MEAN_ANOMALY": 52.306, "EPHEMERIS_TYPE": 0, "CLASSIFICATION_TYPE": "U", "NORAD_CAT_ID": 31618, "ELEMENT_SET_NO": 999, "REV_AT_EPOCH": 70363, "BSTAR": 0.0002337886, "MEAN_MOTION_DOT": 5.22e-06, "MEAN_MOTION_DDOT": 0}, "tle": {"line1": "1 31618U 99025BZY 25353.68801073  .00000522  00000+0  23379-3 0  9990", "line2": "2 31618  99.4436 137.0992 0156939 306.3720  52.3060 14.21030172703637"}}, "geometry": {"type": "Point", "coordinates": [-55.77469070706682, -58.65621758525017]}}, {"type": "Feature", "properties": {"norad_id": 31619, "name": "FENGYUN 1C DEB", "group": "fengyun-1c-debris", "lat": -64.54385959465755, "lon": -149.98321447855105, "alt_km": 559.5335017874977, "timestamp": "2025-12-22T11:33:20.722908+00:00", "meta": {"OBJECT_NAME": "FENGYUN 1C DEB", "OBJECT_ID": "1999-025BZZ", "EPOCH": "2025-12-21T06:45:55.955232", "MEAN_MOTION": 14.86149354, "ECCENTRICITY": 0.0094151, "INCLINATION": 99.071, "RA_OF_ASC_NODE": 189.0401, "ARG_OF_PERICENTER": 268.2208, "MEAN_ANOMALY": 90.8218, "EPHEMERIS_TYPE": 0, "CLASSIFICATION_TYPE": "U", "NORAD_CAT_ID": 31619, "ELEMENT_SET_NO": 999, "REV_AT_EPOCH": 63615, "BSTAR": 0.0037749, "MEAN_MOTION_DOT": 0.00035976, "MEAN_MOTION_DDOT": 0}, "tle": {"line1": "1 31619U 99025BZZ 25355.28189763  .00035976  00000+0  37749-2 0  9990", "line2": "2 31619  99.0710 189.0401 0094151 268.2208  90.8218 14.86149354636153"}}, "geometry": {"type": "Point", "coordinates": [-149.98321447855105, -64.54385959465755]}}, {"type": "Feature", "properties": {"norad_id": 31620, "name": "FENGYUN 1C DEB", "group": "fengyun-1c-debris", "lat": 10.939025177113836, "lon": 79.15187332191809, "alt_km": 754.7147178487767, "timestamp": "2025-12-22T11:33:20.722918+00:00", "meta": {"OBJECT_NAME": "FENGYUN 1C DEB", "OBJECT_ID": "1999-025CAA", "EPOCH": "2025-12-18T12:16:26.023584", "MEAN_MOTION": 14.37303737, "ECCENTRICITY": 0.00195289, "INCLINATION": 98.8873, "RA_OF_ASC_NODE": 76.7848, "ARG_OF_PERICENTER": 23.9081, "MEAN_ANOMALY": 336.3007, "EPHEMERIS_TYPE": 0, "CLASSIFICATION_TYPE": "U", "NORAD_CAT_ID": 31620, "ELEMENT_SET_NO": 999, "REV_AT_EPOCH": 65927, "BSTAR": 0.0019950798, "MEAN_MOTION_DOT": 5.921e-05, "MEAN_MOTION_DDOT": 0}, "tle": {"line1": "1 31620U 99025CAA 25352.51141231  .00005921  00000+0  19951-2 0  9995", "line2": "2 31620  98.8873  76.7848 0019528  23.9081 336.3007 14.37303737659274"}}, "geometry": {"type": "Point", "coordinates": [79.15187332191809, 10.939025177113836]}}, {"type": "Feature", "properties": {"norad_id": 31622, "name": "FENGYUN 1C DEB", "group": "fengyun-1c-debris", "lat": -6.027207969283798, "lon": 92.43376890918634, "alt_km": 763.2255425680551, "timestamp": "2025-12-22T11:33:20.722931+00:00", "meta": {"OBJECT_NAME": "FENGYUN 1C DEB", "OBJECT_ID": "1999-025CAC", "EPOCH": "2025-12-21T05:38:37.239072", "MEAN_MOTION": 14.3726207, "ECCENTRICITY": 0.0015203, "INCLINATION": 98.8168, "RA_OF_ASC_NODE": 90.2179, "ARG_OF_PERICENTER": 314.9507, "MEAN_ANOMALY": 73.8848, "EPHEMERIS_TYPE": 0, "CLASSIFICATION_TYPE": "U", "NORAD_CAT_ID": 31622, "ELEMENT_SET_NO": 999, "REV_AT_EPOCH": 95894, "BSTAR": 0.0013467, "MEAN_MOTION_DOT": 3.974e-05, "MEAN_MOTION_DDOT": 0}, "tle": {"line1": "1 31622U 99025CAC 25355.23515323  .00003974  00000+0  13467-2 0  9998", "line2": "2 31622  98.8168  90.2179 0015203 314.9507  73.8848 14.37262070958949"}}, "geometry": {"type": "Point", "coordinates": [92.43376890918634, -6.027207969283798]}}, {"type": "Feature", "properties": {"norad_id": 31623, "name": "FENGYUN 1C DEB", "group": "fengyun-1c-debris", "lat": 6.508418469960909, "lon": 27.105160973160366, "alt_km": 1094.6228790497262, "timestamp": "2025-12-22T11:33:20.722941+00:00", "meta": {"OBJECT_NAME": "FENGYUN 1C DEB", "OBJECT_ID": "1999-025CAD", "EPOCH": "2025-12-21T08:39:42.357888", "MEAN_MOTION": 13.82603376, "ECCENTRICITY": 0.0194296, "INCLINATION": 97.6289, "RA_OF_ASC_NODE": 205.32, "ARG_OF_PERICENTER": 342.2032, "MEAN_ANOMALY": 17.2386, "EPHEMERIS_TYPE": 0, "CLASSIFICATION_TYPE": "U", "NORAD_CAT_ID": 31623, "ELEMENT_SET_NO": 999, "REV_AT_EPOCH": 58039, "BSTAR": 0.00033865403, "MEAN_MOTION_DOT": 3.92e-06, "MEAN_MOTION_DDOT": 0}, "tle": {"line1": "1 31623U 99025CAD 25355.36090692  .00000392  00000+0  33865-3 0  9996", "line2": "2 31623  97.6289 205.3200 0194296 342.2032  17.2386 13.82603376580398"}}, "geometry": {"type": "Point", "coordinates": [27.105160973160366, 6.508418469960909]}}, {"type": "Feature", "properties": {"norad_id": 31625, "name": "FENGYUN 1C DEB", "group": "fengyun-1c-debris", "lat": -67.3559566780609, "lon": -118.77857045299305, "alt_km": 726.7627481787758, "timestamp": "2025-12-22T11:33:20.722951+00:00", "meta": {"OBJECT_NAME": "FENGYUN 1C DEB", "OBJECT_ID": "1999-025CAF", "EPOCH": "2025-12-21T04:50:27.129696", "MEAN_MOTION": 14.55410168, "ECCENTRICITY": 0.01487938, "INCLINATION": 98.8055, "RA_OF_ASC_NODE": 81.6855, "ARG_OF_PERICENTER": 350.0152, "MEAN_ANOMALY": 39.1675, "EPHEMERIS_TYPE": 0, "CLASSIFICATION_TYPE": "U", "NORAD_CAT_ID": 31625, "ELEMENT_SET_NO": 999, "REV_AT_EPOCH": 98516, "BSTAR": 0.00010124712, "MEAN_MOTION_DOT": 4.49e-06, "MEAN_MOTION_DDOT": 0}, "tle": {"line1": "1 31625U 99025CAF 25355.20170289  .00000449  00000+0  10125-3 0  9999", "line2": "2 31625  98.8055  81.6855 0148793 350.0152  39.1675 14.55410168985160"}}, "geometry": {"type": "Point", "coordinates": [-118.77857045299305, -67.3559566780609]}}, {"type": "Feature", "properties": {"norad_id": 31627, "name": "FENGYUN 1C DEB", "group": "fengyun-1c-debris", "lat": 30.69637454785347, "lon": -130.64083096450102, "alt_km": 737.7502436087825, "timestamp": "2025-12-22T11:33:20.722963+00:00", "meta": {"OBJECT_NAME": "FENGYUN 1C DEB", "OBJECT_ID": "1999-025CAH", "EPOCH": "2025-11-26T09:13:22.975680", "MEAN_MOTION": 14.35408996, "ECCENTRICITY": 0.00515931, "INCLINATION": 98.5313, "RA_OF_ASC_NODE": 18.4415, "ARG_OF_PERICENTER": 201.9005, "MEAN_ANOMALY": 157.9975, "EPHEMERIS_TYPE": 0, "CLASSIFICATION_TYPE": "U", "NORAD_CAT_ID": 31627, "ELEMENT_SET_NO": 999, "REV_AT_EPOCH": 64532, "BSTAR": 0.0013473839, "MEAN_MOTION_DOT": 3.885e-05, "MEAN_MOTION_DDOT": 0}, "tle": {"line1": "1 31627U 99025CAH 25330.38429370  .00003885  00000+0  13474-2 0  9997", "line2": "2 31627  98.5313  18.4415 0051593 201.9005 157.9975 14.35408996645325"}}, "geometry": {"type": "Point", "coordinates": [-130.64083096450102, 30.69637454785347]}}, {"type": "Feature", "properties": {"norad_id": 31628, "name": "FENGYUN 1C DEB", "group": "fengyun-1c-debris", "lat": -29.05172020833539, "lon": 27.37669193187199, "alt_km": 825.4084691426742, "timestamp": "2025-12-22T11:33:20.722973+00:00", "meta": {"OBJECT_NAME": "FENGYUN 1C DEB", "OBJECT_ID": "1999-025CAJ", "EPOCH": "2025-12-21T20:41:46.406688", "MEAN_MOTION": 13.86873023, "ECCENTRICITY": 0.0167814, "INCLINATION": 102.2707, "RA_OF_ASC_NODE": 213.5105, "ARG_OF_PERICENTER": 198.3403, "MEAN_ANOMALY": 161.1643, "EPHEMERIS_TYPE": 0, "CLASSIFICATION_TYPE": "U", "NORAD_CAT_ID": 31628, "ELEMENT_SET_NO": 999, "REV_AT_EPOCH": 93426, "BSTAR": 0.0012978, "MEAN_MOTION_DOT": 1.625e-05, "MEAN_MOTION_DDOT": 0}, "tle": {"line1": "1 31628U 99025CAJ 25355.86234267  .00001625  00000+0  12978-2 0  9995", "line2": "2 31628 102.2707 213.5105 0167814 198.3403 161.1643 13.86873023934260"}}, "geometry": {"type": "Point", "coordinates": [27.37669193187199, -29.05172020833539]}}, {"type": "Feature", "properties": {"norad_id": 31629, "name": "FENGYUN 1C DEB", "group": "fengyun-1c-debris", "lat": -6.906374230939833, "lon": 47.359520502914094, "alt_km": 773.0529669089201, "timestamp": "2025-12-22T11:33:20.722983+00:00", "meta": {"OBJECT_NAME": "FENGYUN 1C DEB", "OBJECT_ID": "1999-025CAK", "EPOCH": "2025-12-20T20:33:01.727136", "MEAN_MOTION": 14.14688699, "ECCENTRICITY": 0.0103652, "INCLINATION": 102.1334, "RA_OF_ASC_NODE": 43.6651, "ARG_OF_PERICENTER": 6.3502, "MEAN_ANOMALY": 353.8946, "EPHEMERIS_TYPE": 0, "CLASSIFICATION_TYPE": "U", "NORAD_CAT_ID": 31629, "ELEMENT_SET_NO": 999, "REV_AT_EPOCH": 94561, "BSTAR": 0.0017503, "MEAN_MOTION_DOT": 3.477e-05, "MEAN_MOTION_DDOT": 0}, "tle": {"line1": "1 31629U 99025CAK 25354.85626999  .00003477  00000+0  17503-2 0  9997", "line2": "2 31629 102.1334  43.6651 0103652   6.3502 353.8946 14.14688699945614"}}, "geometry": {"type": "Point", "coordinates": [47.359520502914094, -6.906374230939833]}}]}